CZ-2C R/B               
1 54039U 22132E   26039.51560752  .00039383  00000+0  49610-3 0  9990
2 54039  97.2963  42.0093 0018254 190.1076 169.9816 15.59327530185825
GSLV R/B                
1 54149U 22138AN  26039.43577012  .00004157  00000+0  36191-3 0  9997
2 54149  87.3863 176.1511 0019337 256.5917 103.3159 14.96548804179558
XRISM                   
1 57800U 23137A   26039.25040372  .00007197  00000+0  41295-3 0  9996
2 57800  31.0017 114.0173 0008080 105.7749 254.3781 15.11132279133335
ACS3                    
1 59588U 24077B   26039.46668556  .00023726  00000+0  19590-1 0  9995
2 59588  97.2222 347.1483 0045522 167.8686 192.3584 13.88408887 90142
SZ-21 MODULE            
1 66515U 25246C   26039.31779128  .00036164  00000+0  34090-3 0  9998
2 66515  41.4766  23.8541 0002849 283.8241  76.2283 15.66324855 13464
